[{"OBJECT_NAME":"STARLINK-1679","OBJECT_ID":"2020-070AB","EPOCH":"2026-03-10T00:00:02.999808","MEAN_MOTION":15.5813212,"ECCENTRICITY":0.00035105,"INCLINATION":53.046,"RA_OF_ASC_NODE":122.6633,"ARG_OF_PERICENTER":245.3891,"MEAN_ANOMALY":271.8792,"EPHEMERIS_TYPE":0,"CLASSIFICATION_TYPE":"U","NORAD_CAT_ID":46557,"ELEMENT_SET_NO":999,"REV_AT_EPOCH":592,"BSTAR":0.0024151484,"MEAN_MOTION_DOT":0.00189169,"MEAN_MOTION_DDOT":0},{"OBJECT_NAME":"SDX01","OBJECT_ID":"2024-253A","EPOCH":"2026-03-09T21:41:08.872224","MEAN_MOTION":15.57771182,"ECCENTRICITY":0.00053838,"INCLINATION":54.9942,"RA_OF_ASC_NODE":91.8222,"ARG_OF_PERICENTER":12.1114,"MEAN_ANOMALY":348.0051,"EPHEMERIS_TYPE":0,"CLASSIFICATION_TYPE":"U","NORAD_CAT_ID":62459,"ELEMENT_SET_NO":999,"REV_AT_EPOCH":6700,"BSTAR":0.00065975543,"MEAN_MOTION_DOT":0.00049668,"MEAN_MOTION_DDOT":0}]
